{
    "links": {
        "self": "http://www.neowsapp.com/rest/v1/neo/3387611?api_key=iIulBulltgU6a56xZRHN4H3l9WmuAYTsLGpBGhQ2"
    },
    "id": "3387611",
    "neo_reference_id": "3387611",
    "name": "(2007 TH15)",
    "designation": "2007 TH15",
    "nasa_jpl_url": "http://ssd.jpl.nasa.gov/sbdb.cgi?sstr=3387611",
    "absolute_magnitude_h": 24.0,
    "estimated_diameter": {
        "kilometers": {
            "estimated_diameter_min": 0.0421264611,
            "estimated_diameter_max": 0.0941976306
        },
        "meters": {
            "estimated_diameter_min": 42.1264610556,
            "estimated_diameter_max": 94.1976305719
        },
        "miles": {
            "estimated_diameter_min": 0.0261761612,
            "estimated_diameter_max": 0.0585316759
        },
        "feet": {
            "estimated_diameter_min": 138.2101784897,
            "estimated_diameter_max": 309.0473542854
        }
    },
    "is_potentially_hazardous_asteroid": false,
    "close_approach_data": [
        {
            "close_approach_date": "2007-10-16",
            "close_approach_date_full": "2007-Oct-16 09:08",
            "epoch_date_close_approach": 1192525680000,
            "relative_velocity": {
                "kilometers_per_second": "16.7722757551",
                "kilometers_per_hour": "60380.192718383",
                "miles_per_hour": "37517.9036365975"
            },
            "miss_distance": {
                "astronomical": "0.1942633166",
                "lunar": "75.5684301574",
                "kilometers": "29061378.382495642",
                "miles": "18057903.1707861796"
            },
            "orbiting_body": "Earth"
        }
    ],
    "orbital_data": {
        "orbit_id": "7",
        "orbit_determination_date": "2017-04-06 09:05:50",
        "first_observation_date": "2007-10-08",
        "last_observation_date": "2007-10-11",
        "data_arc_in_days": 3,
        "observations_used": 19,
        "orbit_uncertainty": "9",
        "minimum_orbit_intersection": ".193051",
        "jupiter_tisserand_invariant": "3.775",
        "epoch_osculation": "2454383.5",
        "eccentricity": ".3908064845519945",
        "semi_major_axis": "1.836174177050427",
        "inclination": "30.63345791864963",
        "ascending_node_longitude": "16.70685102521372",
        "orbital_period": "908.8019285969664",
        "perihelion_distance": "1.118585401892198",
        "perihelion_argument": "41.85208383856109",
        "aphelion_distance": "2.553762952208656",
        "perihelion_time": "2454428.061052683535",
        "mean_anomaly": "342.3482120126674",
        "mean_motion": ".3961259199304055",
        "equinox": "J2000",
        "orbit_class": {
            "orbit_class_type": "AMO",
            "orbit_class_description": "Near-Earth asteroid orbits similar to that of 1221 Amor",
            "orbit_class_range": "1.017 AU < q (perihelion) < 1.3 AU"
        }
    },
    "is_sentry_object": false
}